[{"OBJECT_NAME":"SCS-01 B","OBJECT_ID":"2025-100B","EPOCH":"2026-03-09T21:49:11.508672","MEAN_MOTION":15.3317485,"ECCENTRICITY":0.00088698,"INCLINATION":97.3706,"RA_OF_ASC_NODE":145.9041,"ARG_OF_PERICENTER":288.6157,"MEAN_ANOMALY":71.4122,"EPHEMERIS_TYPE":0,"CLASSIFICATION_TYPE":"U","NORAD_CAT_ID":63983,"ELEMENT_SET_NO":999,"REV_AT_EPOCH":4567,"BSTAR":0.00098809397,"MEAN_MOTION_DOT":0.00031724,"MEAN_MOTION_DDOT":0},{"OBJECT_NAME":"STARLINK-35536","OBJECT_ID":"2025-245AD","EPOCH":"2026-03-09T20:31:28.251840","MEAN_MOTION":15.30200965,"ECCENTRICITY":9.383e-5,"INCLINATION":53.1593,"RA_OF_ASC_NODE":282.9944,"ARG_OF_PERICENTER":105.4209,"MEAN_ANOMALY":254.6895,"EPHEMERIS_TYPE":0,"CLASSIFICATION_TYPE":"U","NORAD_CAT_ID":66261,"ELEMENT_SET_NO":999,"REV_AT_EPOCH":2128,"BSTAR":0.0011970875,"MEAN_MOTION_DOT":0.00035264,"MEAN_MOTION_DDOT":0}]
